{"type": "FeatureCollection", "features": [ {"type": "Feature", "properties": {"norad_id": 34472, "name": "COSMOS 2251 DEB", "group": "cosmos-2251-debris", "lat": -61.74842238857112, "lon": 43.945515669230154, "alt_km": 995.5675960798062, "timestamp": "2025-12-26T04:40:06.179281+00:00", "meta": {"OBJECT_NAME": "COSMOS 2251 DEB", "OBJECT_ID": "1993-036TR", "EPOCH": "2025-12-25T14:59:08.401056", "MEAN_MOTION": 13.7035431, "ECCENTRICITY": 0.032767, "INCLINATION": 74.0846, "RA_OF_ASC_NODE": 76.9541, "ARG_OF_PERICENTER": 205.149, "MEAN_ANOMALY": 153.3364, "EPHEMERIS_TYPE": 0, "CLASSIFICATION_TYPE": "U", "NORAD_CAT_ID": 34472, "ELEMENT_SET_NO": 999, "REV_AT_EPOCH": 83903, "BSTAR": 0.00075081, "MEAN_MOTION_DOT": 9.47e-06, "MEAN_MOTION_DDOT": 0}, "tle": {"line1": "1 34472U 93036TR  25359.62440279  .00000947  00000+0  75081-3 0  9992", "line2": "2 34472  74.0846  76.9541 0327670 205.1490 153.3364 13.70354310839034"}}, "geometry": {"type": "Point", "coordinates": [43.945515669230154, -61.74842238857112]}}, {"type": "Feature", "properties": {"norad_id": 34474, "name": "COSMOS 2251 DEB", "group": "cosmos-2251-debris", "lat": 11.518267891146866, "lon": -53.97666897116874, "alt_km": 727.6822745552454, "timestamp": "2025-12-26T04:40:06.179291+00:00", "meta": {"OBJECT_NAME": "COSMOS 2251 DEB", "OBJECT_ID": "1993-036TT", "EPOCH": "2025-12-25T13:46:35.156064", "MEAN_MOTION": 14.06520553, "ECCENTRICITY": 0.0199435, "INCLINATION": 74.0788, "RA_OF_ASC_NODE": 303.7716, "ARG_OF_PERICENTER": 14.5728, "MEAN_ANOMALY": 96.9226, "EPHEMERIS_TYPE": 0, "CLASSIFICATION_TYPE": "U", "NORAD_CAT_ID": 34474, "ELEMENT_SET_NO": 999, "REV_AT_EPOCH": 85689, "BSTAR": 0.0025497, "MEAN_MOTION_DOT": 5.032e-05, "MEAN_MOTION_DDOT": 0}, "tle": {"line1": "1 34474U 93036TT  25359.57401801  .00005032  00000+0  25497-2 0  9991", "line2": "2 34474  74.0788 303.7716 0199435  14.5728  96.9226 14.06520553856894"}}, "geometry": {"type": "Point", "coordinates": [-53.97666897116874, 11.518267891146866]}}, {"type": "Feature", "properties": {"norad_id": 34476, "name": "COSMOS 2251 DEB", "group": "cosmos-2251-debris", "lat": -58.61980234709971, "lon": -92.1257460258925, "alt_km": 764.7617051163525, "timestamp": "2025-12-26T04:40:06.179301+00:00", "meta": {"OBJECT_NAME": "COSMOS 2251 DEB", "OBJECT_ID": "1993-036TV", "EPOCH": "2025-12-23T04:15:02.567520", "MEAN_MOTION": 13.82132648, "ECCENTRICITY": 0.03222242, "INCLINATION": 74.0063, "RA_OF_ASC_NODE": 64.9101, "ARG_OF_PERICENTER": 282.3311, "MEAN_ANOMALY": 74.192, "EPHEMERIS_TYPE": 0, "CLASSIFICATION_TYPE": "U", "NORAD_CAT_ID": 34476, "ELEMENT_SET_NO": 999, "REV_AT_EPOCH": 83782, "BSTAR": 0.0037798313, "MEAN_MOTION_DOT": 6.03e-05, "MEAN_MOTION_DDOT": 0}, "tle": {"line1": "1 34476U 93036TV  25357.17711305  .00006030  00000+0  37798-2 0  9996", "line2": "2 34476  74.0063  64.9101 0322224 282.3311  74.1920 13.82132648837821"}}, "geometry": {"type": "Point", "coordinates": [-92.1257460258925, -58.61980234709971]}}, {"type": "Feature", "properties": {"norad_id": 34477, "name": "COSMOS 2251 DEB", "group": "cosmos-2251-debris", "lat": 20.355366468696406, "lon": -142.25947864045315, "alt_km": 683.5860275048681, "timestamp": "2025-12-26T04:40:06.179311+00:00", "meta": {"OBJECT_NAME": "COSMOS 2251 DEB", "OBJECT_ID": "1993-036TW", "EPOCH": "2025-12-25T21:35:41.322048", "MEAN_MOTION": 14.5695296, "ECCENTRICITY": 0.00766366, "INCLINATION": 73.9785, "RA_OF_ASC_NODE": 44.4217, "ARG_OF_PERICENTER": 229.1236, "MEAN_ANOMALY": 185.1274, "EPHEMERIS_TYPE": 0, "CLASSIFICATION_TYPE": "U", "NORAD_CAT_ID": 34477, "ELEMENT_SET_NO": 999, "REV_AT_EPOCH": 88817, "BSTAR": 0.0007455762, "MEAN_MOTION_DOT": 3.455e-05, "MEAN_MOTION_DDOT": 0}, "tle": {"line1": "1 34477U 93036TW  25359.89978382  .00003455  00000+0  74558-3 0  9992", "line2": "2 34477  73.9785  44.4217 0076636 229.1236 185.1274 14.56952960888178"}}, "geometry": {"type": "Point", "coordinates": [-142.25947864045315, 20.355366468696406]}}, {"type": "Feature", "properties": {"norad_id": 34478, "name": "COSMOS 2251 DEB", "group": "cosmos-2251-debris", "lat": 15.903031126569685, "lon": -16.142694111595514, "alt_km": 562.3391535429791, "timestamp": "2025-12-26T04:40:06.179333+00:00", "meta": {"OBJECT_NAME": "COSMOS 2251 DEB", "OBJECT_ID": "1993-036TX", "EPOCH": "2025-12-25T08:28:11.913024", "MEAN_MOTION": 15.09100572, "ECCENTRICITY": 0.003363, "INCLINATION": 74.0404, "RA_OF_ASC_NODE": 340.914, "ARG_OF_PERICENTER": 197.3205, "MEAN_ANOMALY": 288.9824, "EPHEMERIS_TYPE": 0, "CLASSIFICATION_TYPE": "U", "NORAD_CAT_ID": 34478, "ELEMENT_SET_NO": 999, "REV_AT_EPOCH": 89163, "BSTAR": 0.0030996, "MEAN_MOTION_DOT": 0.00050106, "MEAN_MOTION_DDOT": 0}, "tle": {"line1": "1 34478U 93036TX  25359.35291566  .00050106  00000+0  30996-2 0  9998", "line2": "2 34478  74.0404 340.9140 0033630 197.3205 288.9824 15.09100572891638"}}, "geometry": {"type": "Point", "coordinates": [-16.142694111595514, 15.903031126569685]}}, {"type": "Feature", "properties": {"norad_id": 34481, "name": "COSMOS 2251 DEB", "group": "cosmos-2251-debris", "lat": -68.667933704421, "lon": -103.82409610404127, "alt_km": 760.9771503826842, "timestamp": "2025-12-26T04:40:06.179345+00:00", "meta": {"OBJECT_NAME": "COSMOS 2251 DEB", "OBJECT_ID": "1993-036UA", "EPOCH": "2025-12-25T13:06:57.408192", "MEAN_MOTION": 14.32595231, "ECCENTRICITY": 0.0070203, "INCLINATION": 73.9789, "RA_OF_ASC_NODE": 29.9926, "ARG_OF_PERICENTER": 201.9273, "MEAN_ANOMALY": 312.4007, "EPHEMERIS_TYPE": 0, "CLASSIFICATION_TYPE": "U", "NORAD_CAT_ID": 34481, "ELEMENT_SET_NO": 999, "REV_AT_EPOCH": 87632, "BSTAR": 0.00062076, "MEAN_MOTION_DOT": 1.706e-05, "MEAN_MOTION_DDOT": 0}, "tle": {"line1": "1 34481U 93036UA  25359.54649778  .00001706  00000+0  62076-3 0  9992", "line2": "2 34481  73.9789  29.9926 0070203 201.9273 312.4007 14.32595231876326"}}, "geometry": {"type": "Point", "coordinates": [-103.82409610404127, -68.667933704421]}}, {"type": "Feature", "properties": {"norad_id": 34482, "name": "COSMOS 2251 DEB", "group": "cosmos-2251-debris", "lat": 41.18351654408386, "lon": -147.96025545506757, "alt_km": 685.7371713353623, "timestamp": "2025-12-26T04:40:06.179356+00:00", "meta": {"OBJECT_NAME": "COSMOS 2251 DEB", "OBJECT_ID": "1993-036UB", "EPOCH": "2025-12-25T15:42:20.826144", "MEAN_MOTION": 14.69426499, "ECCENTRICITY": 0.0044289, "INCLINATION": 74.0363, "RA_OF_ASC_NODE": 198.5815, "ARG_OF_PERICENTER": 256.1651, "MEAN_ANOMALY": 170.9121, "EPHEMERIS_TYPE": 0, "CLASSIFICATION_TYPE": "U", "NORAD_CAT_ID": 34482, "ELEMENT_SET_NO": 999, "REV_AT_EPOCH": 88377, "BSTAR": 0.0017785, "MEAN_MOTION_DOT": 0.00010671, "MEAN_MOTION_DDOT": 0}, "tle": {"line1": "1 34482U 93036UB  25359.65440771  .00010671  00000+0  17785-2 0  9994", "line2": "2 34482  74.0363 198.5815 0044289 256.1651 170.9121 14.69426499883774"}}, "geometry": {"type": "Point", "coordinates": [-147.96025545506757, 41.18351654408386]}}, {"type": "Feature", "properties": {"norad_id": 34544, "name": "COSMOS 2251 DEB", "group": "cosmos-2251-debris", "lat": 41.0979079331463, "lon": -12.329463226979358, "alt_km": 951.1201048756666, "timestamp": "2025-12-26T04:40:06.179366+00:00", "meta": {"OBJECT_NAME": "COSMOS 2251 DEB", "OBJECT_ID": "1993-036UE", "EPOCH": "2025-12-22T13:17:43.726848", "MEAN_MOTION": 13.54671118, "ECCENTRICITY": 0.03836445, "INCLINATION": 73.9138, "RA_OF_ASC_NODE": 188.1407, "ARG_OF_PERICENTER": 214.797, "MEAN_ANOMALY": 178.3987, "EPHEMERIS_TYPE": 0, "CLASSIFICATION_TYPE": "U", "NORAD_CAT_ID": 34544, "ELEMENT_SET_NO": 999, "REV_AT_EPOCH": 83015, "BSTAR": 0.00039748277, "MEAN_MOTION_DOT": 4.13e-06, "MEAN_MOTION_DDOT": 0}, "tle": {"line1": "1 34544U 93036UE  25356.55397832  .00000413  00000+0  39748-3 0  9995", "line2": "2 34544  73.9138 188.1407 0383644 214.7970 178.3987 13.54671118830157"}}, "geometry": {"type": "Point", "coordinates": [-12.329463226979358, 41.0979079331463]}}, {"type": "Feature", "properties": {"norad_id": 34546, "name": "COSMOS 2251 DEB", "group": "cosmos-2251-debris", "lat": 16.621511041857524, "lon": 39.19389498645663, "alt_km": 751.5760373592184, "timestamp": "2025-12-26T04:40:06.179377+00:00", "meta": {"OBJECT_NAME": "COSMOS 2251 DEB", "OBJECT_ID": "1993-036UG", "EPOCH": "2025-12-25T18:29:57.837984", "MEAN_MOTION": 14.45461725, "ECCENTRICITY": 0.00220624, "INCLINATION": 74.0292, "RA_OF_ASC_NODE": 224.888, "ARG_OF_PERICENTER": 297.215, "MEAN_ANOMALY": 181.6117, "EPHEMERIS_TYPE": 0, "CLASSIFICATION_TYPE": "U", "NORAD_CAT_ID": 34546, "ELEMENT_SET_NO": 999, "REV_AT_EPOCH": 88214, "BSTAR": 0.00052557969, "MEAN_MOTION_DOT": 1.83e-05, "MEAN_MOTION_DDOT": 0}, "tle": {"line1": "1 34546U 93036UG  25359.77080831  .00001830  00000+0  52558-3 0  9990", "line2": "2 34546  74.0292 224.8880 0022062 297.2150 181.6117 14.45461725882145"}}, "geometry": {"type": "Point", "coordinates": [39.19389498645663, 16.621511041857524]}}, {"type": "Feature", "properties": {"norad_id": 34547, "name": "COSMOS 2251 DEB", "group": "cosmos-2251-debris", "lat": -38.69928229619662, "lon": -92.21020250625385, "alt_km": 654.655206902099, "timestamp": "2025-12-26T04:40:06.179387+00:00", "meta": {"OBJECT_NAME": "COSMOS 2251 DEB", "OBJECT_ID": "1993-036UH", "EPOCH": "2025-12-24T22:19:25.423968", "MEAN_MOTION": 14.7260031, "ECCENTRICITY": 0.00159248, "INCLINATION": 74.0301, "RA_OF_ASC_NODE": 76.9883, "ARG_OF_PERICENTER": 154.8954, "MEAN_ANOMALY": 205.2996, "EPHEMERIS_TYPE": 0, "CLASSIFICATION_TYPE": "U", "NORAD_CAT_ID": 34547, "ELEMENT_SET_NO": 999, "REV_AT_EPOCH": 88701, "BSTAR": 0.0017419579, "MEAN_MOTION_DOT": 0.00011095, "MEAN_MOTION_DDOT": 0}, "tle": {"line1": "1 34547U 93036UH  25358.93015537  .00011095  00000+0  17420-2 0  9991", "line2": "2 34547  74.0301  76.9883 0015924 154.8954 205.2996 14.72600310887019"}}, "geometry": {"type": "Point", "coordinates": [-92.21020250625385, -38.69928229619662]}}]}